KUIPER-00196            
1 67144U 25301M   26064.34439603  .00048980  00000+0  12661-2 0  9999
2 67144  51.8700  85.8732 0003784   9.9788 350.1274 15.38615916 13079
KUIPER-00204            
1 67145U 25301N   26064.53376241  .00030475  00000+0  11787-2 0  9997
2 67145  51.8847  90.0007 0003050 332.4510  27.6310 15.25954009 13148
KUIPER-00210            
1 67146U 25301P   26064.58335648  .00024523  00000+0  29295-2 0  9999
2 67146  51.8993  91.3855 0011103  60.4365 152.9999 14.84027740  5615
KUIPER-00221            
1 67147U 25301Q   26064.08448849  .00004942  00000+0  67593-3 0  9990
2 67147  51.9008 100.9697 0000612 107.2753 252.8276 14.79985190 12846
KUIPER-00232            
1 67148U 25301R   26064.58335648 -.01343722  00000+0 -75953-1 0  9990
2 67148  51.8804  85.7090 0002258 139.4811 290.9004 15.15520867  5321
KUIPER-00241            
1 67149U 25301S   26064.58335648  .00026480  00000+0  34775-2 0  9995
2 67149  51.9010  93.7703 0001312  91.7246  19.4836 14.80070014  5731
KUIPER-00245            
1 67150U 25301T   26064.08179257 -.00001821  00000+0 -20996-3 0  9999
2 67150  51.9025 103.5032 0000525  66.5774 293.5243 14.79932036 12807
KUIPER-00246            
1 67151U 25301U   26064.58335648 -.01159948  00000+0 -82785-1 0  9990
2 67151  51.9011  87.1444 0005482  51.1172  97.0528 15.07194299  5905
KUIPER-00247            
1 67152U 25301V   26064.44712047  .00052538  00000+0  14407-2 0  9999
2 67152  51.8631  86.4717 0014449  41.5093 318.6988 15.36667910 13072
KUIPER-00248            
1 67153U 25301W   26064.47969286  .00037428  00000+0  10135-2 0  9997
2 67153  51.8662  85.9805 0011103  27.5366 332.6207 15.37254007 13250
KUIPER-00249            
1 67154U 25301X   26064.45266748  .00041848  00000+0  11073-2 0  9992
2 67154  51.8651  85.7905 0010178  27.9363 332.2169 15.37927295 13080
KUIPER-00250            
1 67155U 25301Y   26064.58335648 -.01673651  00000+0 -15228+0 0  9992
2 67155  51.8922  88.5647 0009309  37.8054 134.5696 14.98197601  5903
KUIPER-00251            
1 67156U 25301Z   26064.46948806  .00066967  00000+0  17851-2 0  9996
2 67156  51.8649  85.9060 0011010  33.8952 326.2736 15.37479342 13278
KUIPER-00252            
1 67157U 25301AA  26064.48721022  .00047136  00000+0  12747-2 0  9994
2 67157  51.8644  86.0155 0012567  37.8953 322.2916 15.37172587 13080
KUIPER-00261            
1 67158U 25301AB  26064.58335648 -.01690591  00000+0 -16581+0 0  9990
2 67158  51.8957  88.8431 0011102  40.5032 228.0788 14.95316907  5314
KUIPER-00265            
1 67159U 25301AC  26064.41676460  .00004757  00000+0  65266-3 0  9991
2 67159  51.9022 104.5070 0001278  27.4554 332.6476 14.79927863 12854
